STARLINK-4789           
1 53868U 22114BC  26068.82093655 -.00000208  00000+0  50272-5 0  9991
2 53868  53.2161 263.4434 0001360  97.8997 262.2150 15.08837621193412
LEMUR-2-SIERRINI        
1 60579U 24149DR  26068.80891719  .00014386  00000+0  92040-3 0  9991
2 60579  97.6873 151.1225 0006580 147.8458 212.3173 15.08682764 85461
